{
  "61969": {
    "noradId": "61969",
    "tle": [
      "1 61969C 24210L   25338.84145833  .00004507  00000+0  16336-3 0  3381",
      "2 61969  43.0034 348.3582 0001568 250.4643 213.2168 15.27551195    19"
    ]
  },
  "61970": {
    "noradId": "61970",
    "tle": [
      "1 61970C 24210M   25338.86229167  .00019717  00000+0  71471-3 0  3388",
      "2 61970  43.0000 355.6844 0001422 280.8798  76.4434 15.27532218    13"
    ]
  },
  "61971": {
    "noradId": "61971",
    "tle": [
      "1 61971C 24210N   25338.85881944  .00013717  00000+0  49725-3 0  3386",
      "2 61971  43.0021 355.6025 0001368 253.4750 127.1878 15.27537283    14"
    ]
  },
  "61972": {
    "noradId": "61972",
    "tle": [
      "1 61972C 24210P   25338.85881944  .00005083  00000+0  18417-3 0  3388",
      "2 61972  43.0011 355.6526 0001530 289.8687  69.5698 15.27559630    12"
    ]
  },
  "61973": {
    "noradId": "61973",
    "tle": [
      "1 61973C 24210Q   25338.86368056  .00018358  00000+0  66546-3 0  3389",
      "2 61973  43.0011 355.0042 0001338 281.6198   6.3515 15.27534089    11"
    ]
  },
  "61974": {
    "noradId": "61974",
    "tle": [
      "1 61974C 24210R   25338.86159722 -.00018845  00000+0 -68244-3 0  3388",
      "2 61974  43.0001 355.7753 0001478 278.7052  39.4299 15.27602772    19"
    ]
  },
  "61975": {
    "noradId": "61975",
    "tle": [
      "1 61975C 24210S   25338.85881944  .00020241  00000+0  73357-3 0  3388",
      "2 61975  43.0033 355.4171 0001389 240.1135 218.3611 15.27538125    18"
    ]
  },
  "61976": {
    "noradId": "61976",
    "tle": [
      "1 61976C 24210T   25338.86090278  .00018210  00000+0  65999-3 0  3388",
      "2 61976  43.0033 355.3543 0001394 244.3608 246.8143 15.27539473    11"
    ]
  },
  "61977": {
    "noradId": "61977",
    "tle": [
      "1 61977C 24210U   25338.86437500  .00018647  00000+0  67588-3 0  3382",
      "2 61977  43.0032 355.5193 0001500 243.4057 189.0476 15.27536449    18"
    ]
  },
  "61978": {
    "noradId": "61978",
    "tle": [
      "1 61978C 24210V   25338.86298611  .00014750  00000+0  53462-3 0  3388",
      "2 61978  43.0006 355.1397 0001186 231.7856 355.7576 15.27540208    10"
    ]
  },
  "61979": {
    "noradId": "61979",
    "tle": [
      "1 61979C 24210W   25338.86368056  .00040890  00000+0  14817-2 0  3384",
      "2 61979  43.0024 355.1497 0001244 240.9405 343.3511 15.27522767    11"
    ]
  },
  "61980": {
    "noradId": "61980",
    "tle": [
      "1 61980C 24210X   25338.86368056  .00019263  00000+0  69835-3 0  3387",
      "2 61980  43.0003 355.7281 0001452 285.3693  58.3738 15.27529490    14"
    ]
  },
  "61981": {
    "noradId": "61981",
    "tle": [
      "1 61981C 24210Y   25338.86784722  .00013464  00000+0  48803-3 0  3389",
      "2 61981  43.0033 355.2629 0001267 279.3975 271.2524 15.27540652    11"
    ]
  },
  "61982": {
    "noradId": "61982",
    "tle": [
      "1 61982C 24210Z   25338.81090278  .00018124  00000+0  65691-3 0  3383",
      "2 61982  43.0021 355.3980 0001343 282.7992  32.1655 15.27536780    18"
    ]
  },
  "62008": {
    "noradId": "62008",
    "tle": [
      "1 62008C 24213A   25338.83034722  .00035451  00000+0  29199-3 0  3385",
      "2 62008  53.1562 148.7146 0001229  80.5292 103.5337 15.69676181    14"
    ]
  },
  "62009": {
    "noradId": "62009",
    "tle": [
      "1 62009C 24213B   25338.82687500  .00044333  00000+0  36518-3 0  3385",
      "2 62009  53.1568 149.1891 0000907  84.8235 217.7181 15.69665624    14"
    ]
  },
  "62010": {
    "noradId": "62010",
    "tle": [
      "1 62010C 24213C   25338.82687500  .00076885  00000+0  63342-3 0  3389",
      "2 62010  53.1567 148.9576 0001176  80.8960 332.6131 15.69628848    11"
    ]
  },
  "62011": {
    "noradId": "62011",
    "tle": [
      "1 62011C 24213D   25338.82548611  .00056282  00000+0  46363-3 0  3382",
      "2 62011  53.1568 149.1375 0000959  97.1206 225.3138 15.69652361    17"
    ]
  },
  "62012": {
    "noradId": "62012",
    "tle": [
      "1 62012C 24213E   25338.83034722  .00058936  00000+0  48539-3 0  3382",
      "2 62012  53.1566 148.8293 0001181  78.8108  49.7824 15.69654568    17"
    ]
  },
  "62013": {
    "noradId": "62013",
    "tle": [
      "1 62013C 24213F   25338.82965278  .00038874  00000+0  32023-3 0  3381",
      "2 62013  53.1563 148.7810 0001072  98.7340  53.6676 15.69669877    15"
    ]
  },
  "62014": {
    "noradId": "62014",
    "tle": [
      "1 62014C 24213G   25338.82618056  .00045010  00000+0  37075-3 0  3383",
      "2 62014  53.1567 149.0784 0001219 100.8804 253.2083 15.69664776    10"
    ]
  },
  "62015": {
    "noradId": "62015",
    "tle": [
      "1 62015C 24213H   25338.82479167  .00044886  00000+0  36979-3 0  3384",
      "2 62015  53.1561 148.6847 0001078 102.0695  78.3329 15.69661820    11"
    ]
  },
  "62016": {
    "noradId": "62016",
    "tle": [
      "1 62016C 24213J   25338.82618056  .00034061  00000+0  28054-3 0  3386",
      "2 62016  53.1562 148.6227 0001030  76.5188 139.4544 15.69677792    18"
    ]
  },
  "62017": {
    "noradId": "62017",
    "tle": [
      "1 62017C 24213K   25338.82409722  .00051696  00000+0  42582-3 0  3380",
      "2 62017  53.1567 149.0321 0000960  92.8761 277.1700 15.69658852    13"
    ]
  },
  "62018": {
    "noradId": "62018",
    "tle": [
      "1 62018C 24213L   25338.82756944  .00052423  00000+0  43181-3 0  3387",
      "2 62018  53.1567 148.9016 0001351  99.5177 345.6373 15.69657531    13"
    ]
  },
  "62019": {
    "noradId": "62019",
    "tle": [
      "1 62019C 24213M   25338.82548611  .00045524  00000+0  37504-3 0  3384",
      "2 62019  53.1567 149.2484 0001032 127.7492 139.2141 15.69661755    10"
    ]
  },
  "62020": {
    "noradId": "62020",
    "tle": [
      "1 62020C 24213N   25338.82340278  .00032807  00000+0  27019-3 0  3385",
      "2 62020  53.1565 148.5789 0001053  89.0650 138.9372 15.69681337    19"
    ]
  },
  "62021": {
    "noradId": "62021",
    "tle": [
      "1 62021C 24213P   25338.86784722 -.00105220  00000+0 -35479-2 0  3386",
      "2 62021  53.1597 248.8816 0001030 103.1279 222.8281 15.30281936    11"
    ]
  },
  "62022": {
    "noradId": "62022",
    "tle": [
      "1 62022C 24213Q   25338.86229167  .00053322  00000+0  17989-2 0  3383",
      "2 62022  53.1581 236.0770 0001170  71.8987 156.8492 15.30106702    12"
    ]
  },
  "62023": {
    "noradId": "62023",
    "tle": [
      "1 62023C 24213R   25338.84076389  .00065337  00000+0  22048-2 0  3389",
      "2 62023  53.1603 248.3975 0001332 104.8223  20.1624 15.30087136    10"
    ]
  },
  "62024": {
    "noradId": "62024",
    "tle": [
      "1 62024C 24213S   25338.86576389  .00064673  00000+0  21817-2 0  3382",
      "2 62024  53.1586 248.4711 0001624 102.0299  67.6703 15.30097941    16"
    ]
  },
  "62025": {
    "noradId": "62025",
    "tle": [
      "1 62025C 24213T   25338.86437500  .00060203  00000+0  20302-2 0  3387",
      "2 62025  53.1593 248.8309 0000721 110.3292 231.4033 15.30113691    12"
    ]
  },
  "62026": {
    "noradId": "62026",
    "tle": [
      "1 62026C 24213U   25338.86020833  .00061394  00000+0  20706-2 0  3385",
      "2 62026  53.1584 248.5618 0001422  65.7979  38.3666 15.30108781    17"
    ]
  },
  "62027": {
    "noradId": "62027",
    "tle": [
      "1 62027C 24213V   25338.86645833  .00065141  00000+0  21983-2 0  3381",
      "2 62027  53.1597 248.3600 0001643  82.0801 143.8488 15.30085196    10"
    ]
  },
  "62032": {
    "noradId": "62032",
    "tle": [
      "1 62032C 24216A   25338.85881944  .00050132  00000+0  18174-2 0  3386",
      "2 62032  43.0024  71.4911 0001655 275.6721 207.2357 15.27499095    16"
    ]
  },
  "62033": {
    "noradId": "62033",
    "tle": [
      "1 62033C 24216B   25338.86020833  .00000286  00000+0  10373-4 0  3380",
      "2 62033  43.0038  78.8775 0000904 272.4105  18.2883 15.27575012    16"
    ]
  },
  "62034": {
    "noradId": "62034",
    "tle": [
      "1 62034C 24216C   25338.86159722  .00047049  00000+0  17056-2 0  3382",
      "2 62034  43.0013  71.9781 0001412 253.6750  32.3937 15.27503235    18"
    ]
  },
  "62035": {
    "noradId": "62035",
    "tle": [
      "1 62035C 24216D   25338.86576389  .00052075  00000+0  18878-2 0  3383",
      "2 62035  43.0008  79.1840 0001471 269.4795 270.3222 15.27498273    14"
    ]
  },
  "62036": {
    "noradId": "62036",
    "tle": [
      "1 62036C 24216E   25338.84701389  .00054950  00000+0  19927-2 0  3382",
      "2 62036  43.0008  72.1119 0001489 269.1058 275.3875 15.27484473    11"
    ]
  },
  "62037": {
    "noradId": "62037",
    "tle": [
      "1 62037C 24216F   25338.85951389  .00052797  00000+0  19136-2 0  3380",
      "2 62037  43.0031  79.0681 0001538 269.9839 299.0851 15.27503612    12"
    ]
  },
  "62038": {
    "noradId": "62038",
    "tle": [
      "1 62038C 24216G   25338.84145833  .00055866  00000+0  20252-2 0  3380",
      "2 62038  43.0034  68.3908 0001485 267.5225  11.0175 15.27495343    15"
    ]
  },
  "62039": {
    "noradId": "62039",
    "tle": [
      "1 62039C 24216H   25338.84006944  .00054495  00000+0  19755-2 0  3383",
      "2 62039  43.0006  72.1824 0001552 258.3700 233.7062 15.27496368    12"
    ]
  },
  "62040": {
    "noradId": "62040",
    "tle": [
      "1 62040C 24216J   25338.86368056  .00049495  00000+0  17946-2 0  3386",
      "2 62040  42.9997  79.3808 0001281 271.0573 179.4772 15.27495202    11"
    ]
  },
  "62041": {
    "noradId": "62041",
    "tle": [
      "1 62041C 24216K   25338.84423611  .00054771  00000+0  19866-2 0  3380",
      "2 62041  43.0005  72.2107 0001631 270.5696 223.2496 15.27477641    15"
    ]
  },
  "62042": {
    "noradId": "62042",
    "tle": [
      "1 62042C 24216L   25338.86506944  .00046729  00000+0  16940-2 0  3388",
      "2 62042  43.0025  71.8746 0001177 267.2941  73.1674 15.27503665    19"
    ]
  }
}